NVS-01 (IRNSS-1J)       
1 56759U 23076A   26087.92697383 -.00000360  00000+0  00000+0 0  9998
2 56759   2.3582 247.7099 0007051  52.8478 348.9908  1.00269381 10315
COSMOS 2569 [GLONASS-K2]
1 57517U 23114A   26087.54112750  .00000041  00000+0  00000+0 0  9997
2 57517  65.2574  75.3385 0012907 293.4527  66.4203  2.13103807 20545
BEIDOU-3 M28            
1 58654U 23207A   26087.21857640 -.00000005  00000+0  00000+0 0  9992
2 58654  55.6833  65.0329 0004982 311.8055  48.1461  1.86229650 15336
BEIDOU-3 M26            
1 58655U 23207B   26087.55302034 -.00000006  00000+0  00000+0 0  9993
2 58655  55.6855  65.0079 0005599 296.0064  63.9292  1.86229581 15321
GSAT0225 (GALILEO 29)   
1 59598U 24079A   26087.07569868  .00000039  00000+0  00000+0 0  9990
2 59598  55.0678 103.3445 0002740 270.8462 214.7370  1.70474547 11938
GSAT0227 (GALILEO 30)   
1 59600U 24079C   26084.70822061  .00000032  00000+0  00000+0 0  9991
2 59600  55.0598 103.4096 0000616  12.6919 347.3562  1.70474585 11944
GSAT0226 (GALILEO 31)   
1 61183U 24167B   26086.54056287 -.00000012  00000+0  00000+0 0  9990
2 61183  55.2106 223.5582 0001564 156.5708 194.8874  1.70474116  9455
BEIDOU-3 M25            
1 61186U 24168B   26086.03386642 -.00000033  00000+0  00000+0 0  9992
2 61186  54.5461 305.0968 0003793 320.5769 217.9271  1.86229867 10250
BEIDOU-3 M27            
1 61187U 24168C   26086.64527295 -.00000035  00000+0  00000+0 0  9993
2 61187  54.5409 305.0587 0002847  30.2437 333.1760  1.86230021  7744
NAVSTAR 83 (USA 440)    
1 62339U 24242A   26084.32879528 -.00000085  00000+0  00000+0 0  9993
2 62339  54.8829 337.5830 0016358 358.9940 177.9462  2.00569753  9575
NVS-02 (IRNSS-1K)       
1 62850U 25020A   26087.65664654  .00001479  00000+0  11478-2 0  9998
2 62850  20.8225 288.7707 7349659  95.8271 343.7924  2.17784504  9229
QZS-6 (MICHIBIKI-6)     
1 62876U 25023A   26087.91919835 -.00000252  00000+0  00000+0 0  9997
2 62876   0.0526  69.2114 0002281 295.9014 242.6198  1.00270303  4158
COSMOS 2584 [GLONASS-K2]
1 63130U 25042A   26086.95876139  .00000044  00000+0  00000+0 0  9992
2 63130  65.0390  75.5619 0007432 238.7630 121.1744  2.13103439  8314
NAVSTAR 84 (USA 545)    
1 64202U 25116A   26087.81390277 -.00000080  00000+0  00000+0 0  9996
2 64202  55.1842  34.3646 0008966 330.8454  26.7176  2.00551421  6255
COSMOS 2596 [GLONASS-K1]
1 65590U 25206B   26086.61511387 -.00000031  00000+0  00000+0 0  9997
2 65590  64.6808 317.8263 0012287 316.8794 256.7022  2.13100192  4172
GSAT0234 (GALILEO 34)   
1 67162U 25302C   26086.69588354  .00000036  00000+0  00000+0 0  9991
2 67162  54.2830 104.4494 0003830 286.8102  76.5044  1.70474528  1794
NAVSTAR 85 (USA 581)    
1 67588U 26017A   26085.93319859  .00000035  00000+0  00000+0 0  9994
2 67588  55.0345  92.0545 0024556 249.5065 110.2628  2.00553557429968
